NORAD_CAT_ID,OBJECT_NAME,OBJECT_TYPE,EPOCH,MEAN_MOTION,ECCENTRICITY,INCLINATION,RA_OF_ASC_NODE,ARG_OF_PERICENTER,MEAN_ANOMALY,BSTAR,MEAN_MOTION_DOT,MEAN_MOTION_DDOT,TLE_LINE0,TLE_LINE1,TLE_LINE2,SEMIMAJOR_AXIS,PERIOD,APOGEE,PERIGEE,DECAYED
53728.0,STARLINK-4640,PAYLOAD,2024-01-12 11:43:42,15.0883961,0.0001469,53.2159,187.9575,90.3471,269.7689,-0.00012113,-2.215e-05,0.0,0 STARLINK-4640,1 53728U 22107AE  24012.48869100 -.00002215  00000-0 -12113-3 0  9995,2 53728  53.2159 187.9575 0001469  90.3471 269.7689 15.08839610 75110,6917.882,95.438,540.763,538.73,0.0
53728.0,STARLINK-4640,PAYLOAD,2024-01-12 18:05:15,15.0884055,0.0001415,53.2159,186.7689,86.2896,273.8257,-9.9994e-05,-1.879e-05,0.0,0 STARLINK-4640,1 53728U 22107AE  24012.75364966 -.00001879  00000-0 -99994-4 0  9993,2 53728  53.2159 186.7689 0001415  86.2896 273.8257 15.08840550 75751,6917.879,95.438,540.723,538.765,0.0
53728.0,STARLINK-4640,PAYLOAD,2024-01-13 14:45:15,15.08839473,0.0001504,53.216,182.9014,106.2122,253.9036,0.00016852,2.395e-05,0.0,0 STARLINK-4640,1 53728U 22107AE  24013.61476499  .00002395  00000-0  16852-3 0  9997,2 53728  53.2160 182.9014 0001504 106.2122 253.9036 15.08839473 75887,6917.882,95.438,540.787,538.707,0.0
53728.0,STARLINK-4640,PAYLOAD,2024-01-13 17:56:01,15.08842226,0.0001534,53.2166,182.3073,99.4541,260.6624,0.00018892,2.72e-05,0.0,0 STARLINK-4640,1 53728U 22107AE  24013.74724439  .00002720  00000-0  18892-3 0  9999,2 53728  53.2166 182.3073 0001534  99.4541 260.6624 15.08842226 75308,6917.874,95.437,540.8,538.677,0.0
53728.0,STARLINK-4640,PAYLOAD,2024-01-14 11:25:17,15.08838953,0.000155,53.2163,179.0383,86.4597,273.6572,0.00014424,2.008e-05,0.0,0 STARLINK-4640,1 53728U 22107AE  24014.47589187  .00002008  00000-0  14424-3 0  9995,2 53728  53.2163 179.0383 0001550  86.4597 273.6572 15.08838953 75417,6917.884,95.438,540.821,538.676,0.0
53728.0,STARLINK-4640,PAYLOAD,2024-01-14 14:36:03,15.08840598,0.0001528,53.2165,178.4437,93.9483,266.1684,0.00015689,2.21e-05,0.0,0 STARLINK-4640,1 53728U 22107AE  24014.60837083  .00002210  00000-0  15689-3 0  9990,2 53728  53.2165 178.4437 0001528  93.9483 266.1684 15.08840598 76032,6917.879,95.438,540.801,538.687,0.0
53728.0,STARLINK-4640,PAYLOAD,2024-01-14 17:46:49,15.08841948,0.000136,53.2147,177.8458,78.6335,281.481,0.00013563,1.871e-05,0.0,0 STARLINK-4640,1 53728U 22107AE  24014.74085017  .00001871  00000-0  13563-3 0  9998,2 53728  53.2147 177.8458 0001360  78.6335 281.4810 15.08841948 76051,6917.874,95.437,540.68,538.799,0.0
53728.0,STARLINK-4640,PAYLOAD,2024-01-15 14:26:50,15.08846255,0.0001232,53.2154,173.9799,92.2641,267.8492,6.4118e-05,7.33e-06,0.0,0 STARLINK-4640,1 53728U 22107AE  24015.60196792  .00000733  00000-0  64118-4 0  9996,2 53728  53.2154 173.9799 0001232  92.2641 267.8492 15.08846255 76188,6917.861,95.437,540.579,538.874,0.0
53728.0,STARLINK-4640,PAYLOAD,2024-01-15 16:02:12,15.08853907,0.0001254,53.2147,173.6833,82.8463,277.2672,0.00017976,2.575e-05,0.0,0 STARLINK-4640,1 53728U 22107AE  24015.66820325  .00002575  00000-0  17976-3 0  9993,2 53728  53.2147 173.6833 0001254  82.8463 277.2672 15.08853907 75598,6917.838,95.437,540.57,538.835,0.0
53728.0,STARLINK-4640,PAYLOAD,2024-01-16 09:31:27,15.08840673,0.000127,53.2158,170.4101,105.8049,254.3083,5.2572e-05,5.49e-06,0.0,0 STARLINK-4640,1 53728U 22107AE  24016.39685021  .00000549  00000-0  52572-4 0  9997,2 53728  53.2158 170.4101 0001270 105.8049 254.3083 15.08840673 75708,6917.878,95.438,540.622,538.865,0.0
53728.0,STARLINK-4640,PAYLOAD,2024-01-16 14:17:37,15.08840193,0.0001396,53.2163,169.5178,100.4981,259.6169,3.8754e-05,3.29e-06,0.0,0 STARLINK-4640,1 53728U 22107AE  24016.59557092  .00000329  00000-0  38754-4 0  9997,2 53728  53.2163 169.5178 0001396 100.4981 259.6169 15.08840193 76332,6917.88,95.438,540.711,538.779,0.0
53728.0,STARLINK-4640,PAYLOAD,2024-01-16 17:28:23,15.08837721,0.000121,53.2156,168.9243,78.3913,281.7214,1.3376e-05,-7.5e-07,0.0,0 STARLINK-4640,1 53728U 22107AE  24016.72805366 -.00000075  00000-0  13376-4 0  9994,2 53728  53.2156 168.9243 0001210  78.3913 281.7214 15.08837721 76355,6917.887,95.438,540.589,538.915,0.0
53728.0,STARLINK-4640,PAYLOAD,2024-01-17 14:08:25,15.08833816,0.0001228,53.2164,165.0593,80.5018,279.6113,-2.7326e-06,-3.31e-06,0.0,0 STARLINK-4640,1 53728U 22107AE  24017.58918045 -.00000331  00000-0 -27326-5 0  9995,2 53728  53.2164 165.0593 0001228  80.5018 279.6113 15.08833816 76489,6917.899,95.438,540.614,538.915,0.0
53728.0,STARLINK-4640,PAYLOAD,2024-01-17 17:19:11,15.08841649,0.0001295,53.2168,164.4652,68.9088,291.2043,-1.2642e-05,-4.89e-06,0.0,0 STARLINK-4640,1 53728U 22107AE  24017.72165655 -.00000489  00000-0 -12642-4 0  9990,2 53728  53.2168 164.4652 0001295  68.9088 291.2043 15.08841649 75904,6917.875,95.437,540.636,538.844,0.0
53728.0,STARLINK-4640,PAYLOAD,2024-01-18 13:59:12,15.08836434,0.0001807,53.2177,160.6032,57.3026,302.8141,0.00015321,2.151e-05,0.0,0 STARLINK-4640,1 53728U 22107AE  24018.58277867  .00002151  00000-0  15321-3 0  9996,2 53728  53.2177 160.6032 0001807  57.3026 302.8141 15.08836434 76632,6917.891,95.438,541.006,538.506,0.0
53728.0,STARLINK-4640,PAYLOAD,2024-01-18 15:34:35,15.08837607,0.0001881,53.2179,160.3062,55.7308,304.3862,0.0001583,2.232e-05,0.0,0 STARLINK-4640,1 53728U 22107AE  24018.64901859  .00002232  00000-0  15830-3 0  9993,2 53728  53.2179 160.3062 0001881  55.7308 304.3862 15.08837607 76642,6917.888,95.438,541.054,538.451,0.0
53728.0,STARLINK-4640,PAYLOAD,2024-01-19 09:03:49,15.08844917,0.0001673,53.2177,157.0359,61.3804,298.7357,0.00010375,1.364e-05,0.0,0 STARLINK-4640,1 53728U 22107AE  24019.37765644  .00001364  00000-0  10375-3 0  9998,2 53728  53.2177 157.0359 0001673  61.3804 298.7357 15.08844917 76158,6917.865,95.437,540.888,538.573,0.0
53728.0,STARLINK-4640,PAYLOAD,2024-01-19 13:49:58,15.08844831,0.0001631,53.2177,156.1436,62.9909,297.125,9.6027e-05,1.241e-05,0.0,0 STARLINK-4640,1 53728U 22107AE  24019.57637582  .00001241  00000-0  96027-4 0  9992,2 53728  53.2177 156.1436 0001631  62.9909 297.1250 15.08844831 76780,6917.866,95.437,540.859,538.602,0.0
53728.0,STARLINK-4640,PAYLOAD,2024-01-19 15:25:21,15.08845875,0.0001703,53.2175,155.8462,61.2068,298.9095,0.00010789,1.43e-05,0.0,0 STARLINK-4640,1 53728U 22107AE  24019.64261489  .00001430  00000-0  10789-3 0  9999,2 53728  53.2175 155.8462 0001703  61.2068 298.9095 15.08845875 76797,6917.862,95.437,540.906,538.549,0.0
53728.0,STARLINK-4640,PAYLOAD,2024-01-20 12:05:22,15.08876999,0.0001389,53.2177,151.9805,84.2352,275.8799,-0.00049021,-8.089e-05,0.0,0 STARLINK-4640,1 53728U 22107AE  24020.50373043 -.00008089  00000-0 -49021-3 0  9996,2 53728  53.2177 151.9805 0001389  84.2352 275.8799 15.08876999 76323,6917.767,95.435,540.593,538.671,0.0
53728.0,STARLINK-4640,PAYLOAD,2024-01-20 13:40:46,15.08839674,0.0001537,53.2179,151.6821,89.179,270.9378,1.8295e-05,3e-08,0.0,0 STARLINK-4640,1 53728U 22107AE  24020.56997890  .00000003  00000-0  18295-4 0  9990,2 53728  53.2179 151.6821 0001537  89.1790 270.9378 15.08839674 76930,6917.881,95.438,540.81,538.683,0.0
53728.0,STARLINK-4640,PAYLOAD,2024-01-20 18:26:55,15.08845753,0.0001324,53.2168,150.7878,89.8007,270.3137,3.0189e-05,1.93e-06,0.0,0 STARLINK-4640,1 53728U 22107AE  24020.76869349  .00000193  00000-0  30189-4 0  9995,2 53728  53.2168 150.7878 0001324  89.8007 270.3137 15.08845753 76361,6917.863,95.437,540.644,538.812,0.0
53728.0,STARLINK-4640,PAYLOAD,2024-01-21 15:06:55,15.08846477,0.0001411,53.2171,146.9194,85.8167,274.2986,5.2007e-06,-2.05e-06,0.0,0 STARLINK-4640,1 53728U 22107AE  24021.62981447 -.00000205  00000-0  52007-5 0  9994,2 53728  53.2171 146.9194 0001411  85.8167 274.2986 15.08846477 77093,6917.861,95.437,540.702,538.749,0.0
53728.0,STARLINK-4640,PAYLOAD,2024-01-22 11:46:57,15.08837639,0.0001373,53.2162,143.0553,89.389,270.7259,2.1015e-05,4.7e-07,0.0,0 STARLINK-4640,1 53728U 22107AE  24022.49094135  .00000047  00000-0  21015-4 0  9996,2 53728  53.2162 143.0553 0001373  89.3890 270.7259 15.08837639 76621,6917.888,95.438,540.702,538.803,0.0
53728.0,STARLINK-4640,PAYLOAD,2024-01-22 14:57:43,15.08839846,0.0001322,53.2162,142.4604,90.1984,269.9159,3.5089e-05,2.71e-06,0.0,0 STARLINK-4640,1 53728U 22107AE  24022.62341956  .00000271  00000-0  35089-4 0  9992,2 53728  53.2162 142.4604 0001322  90.1984 269.9159 15.08839846 77249,6917.881,95.438,540.66,538.831,0.0
53728.0,STARLINK-4640,PAYLOAD,2024-01-23 13:13:07,15.08844869,0.000135,53.2165,138.2969,84.5657,275.5489,8.3967e-05,1.049e-05,0.0,0 STARLINK-4640,1 53728U 22107AE  24023.55077645  .00001049  00000-0  83967-4 0  9998,2 53728  53.2165 138.2969 0001350  84.5657 275.5489 15.08844869 76782,6917.866,95.437,540.664,538.797,0.0
53728.0,STARLINK-4640,PAYLOAD,2024-01-24 11:28:31,15.08837887,0.0001242,53.2163,134.1341,89.9159,270.1975,4.2853e-05,3.94e-06,0.0,0 STARLINK-4640,1 53728U 22107AE  24024.47814338  .00000394  00000-0  42853-4 0  9999,2 53728  53.2163 134.1341 0001242  89.9159 270.1975 15.08837887 76924,6917.887,95.438,540.611,538.893,0.0
53728.0,STARLINK-4640,PAYLOAD,2024-01-24 14:39:17,15.08841396,0.0001483,53.2165,133.5389,73.1267,286.9888,7.2655e-05,8.69e-06,0.0,0 STARLINK-4640,1 53728U 22107AE  24024.61062195  .00000869  00000-0  72655-4 0  9991,2 53728  53.2165 133.5389 0001483  73.1267 286.9888 15.08841396 77540,6917.876,95.437,540.767,538.715,0.0
53728.0,STARLINK-4640,PAYLOAD,2024-01-25 14:30:04,15.08851381,0.0001431,53.2179,129.0812,76.5276,283.5875,0.00010053,1.313e-05,0.0,0 STARLINK-4640,1 53728U 22107AE  24025.60421503  .00001313  00000-0  10053-3 0  9991,2 53728  53.2179 129.0812 0001431  76.5276 283.5875 15.08851381 77696,6917.846,95.437,540.701,538.721,0.0
53728.0,STARLINK-4640,PAYLOAD,2024-01-26 11:10:05,15.08843488,0.0001733,53.2187,125.2109,67.1244,292.9931,5.6739e-06,-1.98e-06,0.0,0 STARLINK-4640,1 53728U 22107AE  24026.46534502 -.00000198  00000-0  56739-5 0  9994,2 53728  53.2187 125.2109 0001733  67.1244 292.9931 15.08843488 77223,6917.87,95.437,540.934,538.536,0.0
